OBJECT_NAME,OBJECT_ID,EPOCH,MEAN_MOTION,ECCENTRICITY,INCLINATION,RA_OF_ASC_NODE,ARG_OF_PERICENTER,MEAN_ANOMALY,EPHEMERIS_TYPE,CLASSIFICATION_TYPE,NORAD_CAT_ID,ELEMENT_SET_NO,REV_AT_EPOCH,BSTAR,MEAN_MOTION_DOT,MEAN_MOTION_DDOT
GOMX-1,2013-066Q,2026-05-13T01:08:30.484320,14.69317744,.0128433,97.6514,335.7262,189.7344,170.1373,0,U,39430,999,66475,.18979E-3,.122E-4,0
CUBEBUG-2 (LO-74),2013-066AA,2026-05-13T02:13:36.179904,14.93492653,.0058859,97.8890,81.9361,142.3872,218.1487,0,U,39440,999,67175,.16254E-3,.1707E-4,0
NEE-02 KRYSAOR,2013-066AB,2026-05-13T01:44:23.174016,14.86483676,.0066071,97.8882,72.5456,183.5359,176.5399,0,U,39441,999,67098,.11282E-3,.979E-5,0
FUNCUBE-1 (AO-73),2013-066AE,2026-05-13T04:23:22.923744,15.09023935,.003536,97.8259,103.9150,325.6531,34.2410,0,U,39444,999,67438,.29448E-3,.4657E-4,0
UWE-3,2013-066AG,2026-05-13T02:53:56.808960,14.96721298,.0050825,97.8680,88.9732,76.8414,283.8471,0,U,39446,999,67233,.18716E-3,.2132E-4,0
SMDC ONE 2.4,2013-072H,2026-05-12T21:28:50.896992,15.17506734,.0139901,120.4879,215.9097,340.8173,18.7669,0,U,39469,999,11247,.2511E-3,.6122E-4,0
COSMOS 2488 (RODNIK-S 7),2013-076A,2026-05-13T04:23:36.941280,12.42904520,.0019949,82.4862,190.5025,168.4080,191.7463,0,U,39483,999,56154,.43703E-4,.16E-6,0
COSMOS 2489 (RODNIK-S 8),2013-076B,2026-05-13T03:46:50.926368,12.42879241,.0021799,82.4899,191.8855,168.6427,191.5149,0,U,39484,999,56159,-.10326E-4,.9E-7,0
COSMOS 2490 (RODNIK-S 9),2013-076C,2026-05-13T03:06:16.742016,12.42877006,.0021563,82.4846,189.9860,184.3143,175.7754,0,U,39485,999,56152,.74233E-3,.113E-5,0
KAZEOSAT 1,2014-024A,2026-05-13T04:34:12.921312,14.42065079,.0001586,98.3211,206.5057,93.2297,266.9074,0,U,39731,999,63351,-.23674E-5,-.5E-6,0
COSMOS 2496 (RODNIK-S 10),2014-028A,2026-05-13T05:57:02.053152,12.42877063,.0020452,82.4425,130.6164,151.8394,208.3796,0,U,39761,999,54317,.38958E-3,.64E-6,0
COSMOS 2497 (RODNIK-S 11),2014-028B,2026-05-13T05:22:04.472832,12.42892726,.0021126,82.4474,132.3080,147.0440,213.1961,0,U,39762,999,54317,.68397E-4,.19E-6,0
COSMOS 2498 (RODNIK-S 12),2014-028C,2026-05-13T04:53:18.587904,12.42979037,.0021837,82.4433,130.8227,146.8639,213.3813,0,U,39763,999,54320,-.34937E-3,-.39E-6,0
HODOYOSHI-4,2014-033B,2026-05-13T04:51:55.873728,14.88043420,.0025068,97.5461,319.7165,63.2090,297.1687,0,U,40011,999,64360,.11033E-3,.967E-5,0
UNISAT-6,2014-033C,2026-05-13T04:02:49.849728,14.88034044,.0045271,97.7834,286.5115,182.1786,177.9241,0,U,40012,999,64095,.24391E-3,.2226E-4,0
DEIMOS-2,2014-033D,2026-05-13T03:31:42.231648,14.93628848,.0002617,97.5881,8.8609,83.2306,276.9212,0,U,40013,999,63249,.17108E-3,.1752E-4,0
BUGSAT-1 (TITA),2014-033E,2026-05-13T05:42:18.310752,15.15215214,.0026852,98.0412,223.7558,301.5780,58.2830,0,U,40014,999,65054,.15581E-3,.2875E-4,0
SAUDISAT 4,2014-033G,2026-05-12T22:48:55.855008,14.79490725,.0044711,97.7537,280.3146,186.2151,173.8512,0,U,40016,999,64086,.67464E-4,.46E-5,0
APRIZESAT 9,2014-033J,2026-05-13T02:47:19.984992,14.74171803,.006511,97.9009,267.1819,313.9111,45.6734,0,U,40018,999,63839,.47484E-4,.27E-5,0
BRITE-CA1 (TORONTO),2014-033L,2026-05-12T21:50:28.759776,14.72627458,.0079292,97.9688,262.4996,30.7959,329.7865,0,U,40020,999,63702,.74298E-4,.443E-5,0
DUCHIFAT-1,2014-033M,2026-05-12T03:00:31.313088,15.58226206,.00058006,98.0509,186.4226,189.1310,170.9839,0,U,40021,999,65012,.67126926E-3,.5087E-3,0
NANOSATC-BR1,2014-033Q,2026-05-13T00:56:34.851264,15.30316701,.0001931,98.0756,162.3424,326.7264,33.3853,0,U,40024,999,64860,.37739E-3,.10985E-3,0
