GOMX-1                  
1 39430U 13066Q   26133.04757505  .00001220  00000+0  18979-3 0  9994
2 39430  97.6514 335.7262 0128433 189.7344 170.1373 14.69317744664754
CUBEBUG-2 (LO-74)       
1 39440U 13066AA  26133.09277986  .00001707  00000+0  16254-3 0  9994
2 39440  97.8890  81.9361 0058859 142.3872 218.1487 14.93492653671756
NEE-02 KRYSAOR          
1 39441U 13066AB  26133.07249044  .00000979  00000+0  11282-3 0  9993
2 39441  97.8882  72.5456 0066071 183.5359 176.5399 14.86483676670981
FUNCUBE-1 (AO-73)       
1 39444U 13066AE  26133.18290421  .00004657  00000+0  29448-3 0  9993
2 39444  97.8259 103.9150 0035360 325.6531  34.2410 15.09023935674386
UWE-3                   
1 39446U 13066AG  26133.12079640  .00002132  00000+0  18716-3 0  9999
2 39446  97.8680  88.9732 0050825  76.8414 283.8471 14.96721298672336
SMDC ONE 2.4            
1 39469U 13072H   26132.89503353  .00006122  00000+0  25110-3 0  9996
2 39469 120.4879 215.9097 0139901 340.8173  18.7669 15.17506734112477
COSMOS 2488 (RODNIK-S 7)
1 39483U 13076A   26133.18306645  .00000016  00000+0  43703-4 0  9999
2 39483  82.4862 190.5025 0019949 168.4080 191.7463 12.42904520561541
COSMOS 2489 (RODNIK-S 8)
1 39484U 13076B   26133.15753387  .00000009  00000+0 -10326-4 0  9994
2 39484  82.4899 191.8855 0021799 168.6427 191.5149 12.42879241561595
COSMOS 2490 (RODNIK-S 9)
1 39485U 13076C   26133.12936044  .00000113  00000+0  74233-3 0  9996
2 39485  82.4846 189.9860 0021563 184.3143 175.7754 12.42877006561527
KAZEOSAT 1              
1 39731U 14024A   26133.19042733 -.00000050  00000+0 -23674-5 0  9991
2 39731  98.3211 206.5057 0001586  93.2297 266.9074 14.42065079633516
COSMOS 2496 (RODNIK-S *)
1 39761U 14028A   26133.24794043  .00000064  00000+0  38958-3 0  9994
2 39761  82.4425 130.6164 0020452 151.8394 208.3796 12.42877063543173
COSMOS 2497 (RODNIK-S *)
1 39762U 14028B   26133.22366288  .00000019  00000+0  68397-4 0  9990
2 39762  82.4474 132.3080 0021126 147.0440 213.1961 12.42892726543173
COSMOS 2498 (RODNIK-S *)
1 39763U 14028C   26133.20368736 -.00000039  00000+0 -34937-3 0  9995
2 39763  82.4433 130.8227 0021837 146.8639 213.3813 12.42979037543204
HODOYOSHI-4             
1 40011U 14033B   26133.20273002  .00000967  00000+0  11033-3 0  9990
2 40011  97.5461 319.7165 0025068  63.2090 297.1687 14.88043420643606
UNISAT-6                
1 40012U 14033C   26133.16863252  .00002226  00000+0  24391-3 0  9999
2 40012  97.7834 286.5115 0045271 182.1786 177.9241 14.88034044640958
DEIMOS-2                
1 40013U 14033D   26133.14701657  .00001752  00000+0  17108-3 0  9999
2 40013  97.5881   8.8609 0002617  83.2306 276.9212 14.93628848632493
BUGSAT-1 (TITA)         
1 40014U 14033E   26133.23771193  .00002875  00000+0  15581-3 0  9992
2 40014  98.0412 223.7558 0026852 301.5780  58.2830 15.15215214650547
SAUDISAT 4              
1 40016U 14033G   26132.95064647  .00000460  00000+0  67464-4 0  9997
2 40016  97.7537 280.3146 0044711 186.2151 173.8512 14.79490725640865
APRIZESAT 9             
1 40018U 14033J   26133.11620353  .00000270  00000+0  47484-4 0  9999
2 40018  97.9009 267.1819 0065110 313.9111  45.6734 14.74171803638399
BRITE-CA1 (TORONTO)     
1 40020U 14033L   26132.91005509  .00000443  00000+0  74298-4 0  9994
2 40020  97.9688 262.4996 0079292  30.7959 329.7865 14.72627458637029
DUCHIFAT-1              
1 40021U 14033M   26132.12536242  .00050870  00000+0  67127-3 0  9992
2 40021  98.0509 186.4226 0005800 189.1310 170.9839 15.58226206650123
NANOSATC-BR1            
1 40024U 14033Q   26133.03929226  .00010985  00000+0  37739-3 0  9993
2 40024  98.0756 162.3424 0001931 326.7264  33.3853 15.30316701648609
